COSMOS 2588             
1 64095U 25109A   26068.81179522  .00009169  00000+0  32611-3 0  9998
2 64095  72.9704  73.5401 0005019 308.6780  51.3966 15.29122656 44425
STARLINK-35830          
1 66284U 25247V   26068.56624916  .00017388  00000+0  59804-3 0  9992
2 66284  53.1572 192.0895 0001010  83.5422 276.5694 15.30187075 21011
